[
    {
        "Altitude(m)": 607886.736058385,
        "Argument of Periapsis(deg)": 0.0,
        "Eccentricity": 0.0,
        "Inclination(deg)": 60.0,
        "Latitude(deg)": 40.998564486334786,
        "Longitude(deg)": 129.97299642179786,
        "Mean Anomaly(deg)": 49.09090000000002,
        "RAAN(deg)": 200.0,
        "Satellite Name": "Test1 883",
        "Satellite Number": 883,
        "Semi-Major Axis(m)": 6980739.136638005,
        "Time(s)": 0
    },
    {
        "Altitude(m)": 607987.6501318951,
        "Argument of Periapsis(deg)": 0.00010418945913296404,
        "Eccentricity": 0.0,
        "Inclination(deg)": 60.0,
        "Latitude(deg)": 41.46365437387928,
        "Longitude(deg)": 130.47722550446596,
        "Mean Anomaly(deg)": 49.71100614546182,
        "RAAN(deg)": 199.99957995086027,
        "Satellite Name": "Test1 883",
        "Satellite Number": 883,
        "Semi-Major Axis(m)": 6980739.136638005,
        "Time(s)": 10
    }
]